ONEWEB-0333             
1 49199U 21083P   26083.20213245 -.00000122  00000+0 -36886-3 0  9994
2 49199  87.9007 337.1539 0001682  80.8238 279.3081 13.13471939219757
ONEWEB-0334             
1 49200U 21083Q   26083.06766623  .00000048  00000+0  86580-4 0  9996
2 49200  87.9139 291.4487 0002576 100.7659 259.3765 13.20771462225556
ONEWEB-0335             
1 49201U 21083R   26083.19706175 -.00000226  00000+0 -65261-3 0  9999
2 49201  87.9019 337.1496 0001548  75.9899 284.1402 13.13470979219760
ONEWEB-0336             
1 49202U 21083S   26083.16828263  .00000193  00000+0  49257-3 0  9998
2 49202  87.9016 337.1518 0001441  66.8821 293.2460 13.13470713219759
ONEWEB-0337             
1 49203U 21083T   26083.17831562 -.00000100  00000+0 -30787-3 0  9994
2 49203  87.9009 337.1585 0001713  72.3372 287.7944 13.13470095219759
ONEWEB-0338             
1 49204U 21083U   26083.26967972  .00000069  00000+0  13858-3 0  9992
2 49204  87.9139 291.4132 0002010  93.6084 266.5280 13.20771579225609
ONEWEB-0339             
1 49205U 21083V   26083.18689939 -.00000245  00000+0 -70550-3 0  9998
2 49205  87.9021 337.1456 0002007  81.7749 278.3608 13.13471538219735
ONEWEB-0340             
1 49206U 21083W   26083.15245950  .00000067  00000+0  13826-3 0  9990
2 49206  87.9250 352.3488 0001705  77.8061 282.3262 13.18687624218764
ONEWEB-0341             
1 49207U 21083X   26083.15905549  .00000083  00000+0  17655-3 0  9990
2 49207  87.9242 352.3564 0002025  65.6602 294.4742 13.18687604218780
ONEWEB-0342             
1 49208U 21083Y   26083.27599577 -.00000016  00000+0 -71975-4 0  9998
2 49208  87.9147 291.3918 0001866  89.5985 270.5363 13.20770604225576
ONEWEB-0343             
1 49209U 21083Z   26083.16729992  .00000092  00000+0  20170-3 0  9995
2 49209  87.9250 352.3497 0002268  71.8768 288.2611 13.18687687218830
ONEWEB-0344             
1 49210U 21083AA  26083.18182155 -.00000157  00000+0 -46444-3 0  9999
2 49210  87.9006 337.1687 0001877  68.0905 292.0424 13.13468490219738
ONEWEB-0345             
1 49211U 21083AB  26083.17336616  .00000031  00000+0  51364-4 0  9999
2 49211  87.9021 337.1396 0001857  69.0310 291.1017 13.13470281219742
ONEWEB-0346             
1 49212U 21083AC  26083.16399460  .00000102  00000+0  22541-3 0  9998
2 49212  87.9239 352.3571 0001145  69.7768 290.3487 13.18686118218779
ONEWEB-0348             
1 49213U 21083AD  26083.26652358 -.00000031  00000+0 -10913-3 0  9991
2 49213  87.9151 291.3966 0001368  72.7694 287.3589 13.20771419225603
ONEWEB-0350             
1 49214U 21083AE  26083.18266714 -.00000222  00000+0 -64153-3 0  9997
2 49214  87.9018 337.1369 0001794  68.7311 291.4009 13.13468825219776
