[{"OBJECT_NAME":"ONEWEB-0333","OBJECT_ID":"2021-083P","EPOCH":"2026-03-24T04:51:04.243680","MEAN_MOTION":13.13471939,"ECCENTRICITY":0.0001682,"INCLINATION":87.9007,"RA_OF_ASC_NODE":337.1539,"ARG_OF_PERICENTER":80.8238,"MEAN_ANOMALY":279.3081,"EPHEMERIS_TYPE":0,"CLASSIFICATION_TYPE":"U","NORAD_CAT_ID":49199,"ELEMENT_SET_NO":999,"REV_AT_EPOCH":21975,"BSTAR":-0.00036885821,"MEAN_MOTION_DOT":-1.22e-6,"MEAN_MOTION_DDOT":0},{"OBJECT_NAME":"ONEWEB-0334","OBJECT_ID":"2021-083Q","EPOCH":"2026-03-24T01:37:26.362272","MEAN_MOTION":13.20771462,"ECCENTRICITY":0.0002576,"INCLINATION":87.9139,"RA_OF_ASC_NODE":291.4487,"ARG_OF_PERICENTER":100.7659,"MEAN_ANOMALY":259.3765,"EPHEMERIS_TYPE":0,"CLASSIFICATION_TYPE":"U","NORAD_CAT_ID":49200,"ELEMENT_SET_NO":999,"REV_AT_EPOCH":22555,"BSTAR":8.658041e-5,"MEAN_MOTION_DOT":4.8e-7,"MEAN_MOTION_DDOT":0},{"OBJECT_NAME":"ONEWEB-0335","OBJECT_ID":"2021-083R","EPOCH":"2026-03-24T04:43:46.135200","MEAN_MOTION":13.13470979,"ECCENTRICITY":0.00015485,"INCLINATION":87.9019,"RA_OF_ASC_NODE":337.1496,"ARG_OF_PERICENTER":75.9899,"MEAN_ANOMALY":284.1402,"EPHEMERIS_TYPE":0,"CLASSIFICATION_TYPE":"U","NORAD_CAT_ID":49201,"ELEMENT_SET_NO":999,"REV_AT_EPOCH":21976,"BSTAR":-0.00065261233,"MEAN_MOTION_DOT":-2.26e-6,"MEAN_MOTION_DDOT":0},{"OBJECT_NAME":"ONEWEB-0336","OBJECT_ID":"2021-083S","EPOCH":"2026-03-24T04:02:19.619232","MEAN_MOTION":13.13470713,"ECCENTRICITY":0.00014417,"INCLINATION":87.9016,"RA_OF_ASC_NODE":337.1518,"ARG_OF_PERICENTER":66.8821,"MEAN_ANOMALY":293.246,"EPHEMERIS_TYPE":0,"CLASSIFICATION_TYPE":"U","NORAD_CAT_ID":49202,"ELEMENT_SET_NO":999,"REV_AT_EPOCH":21975,"BSTAR":0.00049256779,"MEAN_MOTION_DOT":1.93e-6,"MEAN_MOTION_DDOT":0},{"OBJECT_NAME":"ONEWEB-0337","OBJECT_ID":"2021-083T","EPOCH":"2026-03-24T04:16:46.469568","MEAN_MOTION":13.13470095,"ECCENTRICITY":0.00017133,"INCLINATION":87.9009,"RA_OF_ASC_NODE":337.1585,"ARG_OF_PERICENTER":72.3372,"MEAN_ANOMALY":287.7944,"EPHEMERIS_TYPE":0,"CLASSIFICATION_TYPE":"U","NORAD_CAT_ID":49203,"ELEMENT_SET_NO":999,"REV_AT_EPOCH":21975,"BSTAR":-0.00030787098,"MEAN_MOTION_DOT":-1.0e-6,"MEAN_MOTION_DDOT":0},{"OBJECT_NAME":"ONEWEB-0338","OBJECT_ID":"2021-083U","EPOCH":"2026-03-24T06:28:20.327808","MEAN_MOTION":13.20771579,"ECCENTRICITY":0.000201,"INCLINATION":87.9139,"RA_OF_ASC_NODE":291.4132,"ARG_OF_PERICENTER":93.6084,"MEAN_ANOMALY":266.528,"EPHEMERIS_TYPE":0,"CLASSIFICATION_TYPE":"U","NORAD_CAT_ID":49204,"ELEMENT_SET_NO":999,"REV_AT_EPOCH":22560,"BSTAR":0.00013857628,"MEAN_MOTION_DOT":6.9e-7,"MEAN_MOTION_DDOT":0},{"OBJECT_NAME":"ONEWEB-0339","OBJECT_ID":"2021-083V","EPOCH":"2026-03-24T04:29:08.107296","MEAN_MOTION":13.13471538,"ECCENTRICITY":0.00020079,"INCLINATION":87.9021,"RA_OF_ASC_NODE":337.1456,"ARG_OF_PERICENTER":81.7749,"MEAN_ANOMALY":278.3608,"EPHEMERIS_TYPE":0,"CLASSIFICATION_TYPE":"U","NORAD_CAT_ID":49205,"ELEMENT_SET_NO":999,"REV_AT_EPOCH":21973,"BSTAR":-0.00070549699,"MEAN_MOTION_DOT":-2.45e-6,"MEAN_MOTION_DDOT":0},{"OBJECT_NAME":"ONEWEB-0340","OBJECT_ID":"2021-083W","EPOCH":"2026-03-24T03:39:32.500800","MEAN_MOTION":13.18687624,"ECCENTRICITY":0.00017055,"INCLINATION":87.925,"RA_OF_ASC_NODE":352.3488,"ARG_OF_PERICENTER":77.8061,"MEAN_ANOMALY":282.3262,"EPHEMERIS_TYPE":0,"CLASSIFICATION_TYPE":"U","NORAD_CAT_ID":49206,"ELEMENT_SET_NO":999,"REV_AT_EPOCH":21876,"BSTAR":0.00013826474,"MEAN_MOTION_DOT":6.7e-7,"MEAN_MOTION_DDOT":0},{"OBJECT_NAME":"ONEWEB-0341","OBJECT_ID":"2021-083X","EPOCH":"2026-03-24T03:49:02.394336","MEAN_MOTION":13.18687604,"ECCENTRICITY":0.00020254,"INCLINATION":87.9242,"RA_OF_ASC_NODE":352.3564,"ARG_OF_PERICENTER":65.6602,"MEAN_ANOMALY":294.4742,"EPHEMERIS_TYPE":0,"CLASSIFICATION_TYPE":"U","NORAD_CAT_ID":49207,"ELEMENT_SET_NO":999,"REV_AT_EPOCH":21878,"BSTAR":0.00017655482,"MEAN_MOTION_DOT":8.3e-7,"MEAN_MOTION_DDOT":0},{"OBJECT_NAME":"ONEWEB-0342","OBJECT_ID":"2021-083Y","EPOCH":"2026-03-24T06:37:26.034528","MEAN_MOTION":13.20770604,"ECCENTRICITY":0.00018665,"INCLINATION":87.9147,"RA_OF_ASC_NODE":291.3918,"ARG_OF_PERICENTER":89.5985,"MEAN_ANOMALY":270.5363,"EPHEMERIS_TYPE":0,"CLASSIFICATION_TYPE":"U","NORAD_CAT_ID":49208,"ELEMENT_SET_NO":999,"REV_AT_EPOCH":22557,"BSTAR":-7.1974922e-5,"MEAN_MOTION_DOT":-1.6e-7,"MEAN_MOTION_DDOT":0},{"OBJECT_NAME":"ONEWEB-0343","OBJECT_ID":"2021-083Z","EPOCH":"2026-03-24T04:00:54.713088","MEAN_MOTION":13.18687687,"ECCENTRICITY":0.00022681,"INCLINATION":87.925,"RA_OF_ASC_NODE":352.3497,"ARG_OF_PERICENTER":71.8768,"MEAN_ANOMALY":288.2611,"EPHEMERIS_TYPE":0,"CLASSIFICATION_TYPE":"U","NORAD_CAT_ID":49209,"ELEMENT_SET_NO":999,"REV_AT_EPOCH":21883,"BSTAR":0.00020169906,"MEAN_MOTION_DOT":9.2e-7,"MEAN_MOTION_DDOT":0},{"OBJECT_NAME":"ONEWEB-0344","OBJECT_ID":"2021-083AA","EPOCH":"2026-03-24T04:21:49.381920","MEAN_MOTION":13.1346849,"ECCENTRICITY":0.00018773,"INCLINATION":87.9006,"RA_OF_ASC_NODE":337.1687,"ARG_OF_PERICENTER":68.0905,"MEAN_ANOMALY":292.0424,"EPHEMERIS_TYPE":0,"CLASSIFICATION_TYPE":"U","NORAD_CAT_ID":49210,"ELEMENT_SET_NO":999,"REV_AT_EPOCH":21973,"BSTAR":-0.00046444333,"MEAN_MOTION_DOT":-1.57e-6,"MEAN_MOTION_DDOT":0},{"OBJECT_NAME":"ONEWEB-0345","OBJECT_ID":"2021-083AB","EPOCH":"2026-03-24T04:09:38.836224","MEAN_MOTION":13.13470281,"ECCENTRICITY":0.00018575,"INCLINATION":87.9021,"RA_OF_ASC_NODE":337.1396,"ARG_OF_PERICENTER":69.031,"MEAN_ANOMALY":291.1017,"EPHEMERIS_TYPE":0,"CLASSIFICATION_TYPE":"U","NORAD_CAT_ID":49211,"ELEMENT_SET_NO":999,"REV_AT_EPOCH":21974,"BSTAR":5.1363727e-5,"MEAN_MOTION_DOT":3.1e-7,"MEAN_MOTION_DDOT":0},{"OBJECT_NAME":"ONEWEB-0346","OBJECT_ID":"2021-083AC","EPOCH":"2026-03-24T03:56:09.133440","MEAN_MOTION":13.18686118,"ECCENTRICITY":0.00011453,"INCLINATION":87.9239,"RA_OF_ASC_NODE":352.3571,"ARG_OF_PERICENTER":69.7768,"MEAN_ANOMALY":290.3487,"EPHEMERIS_TYPE":0,"CLASSIFICATION_TYPE":"U","NORAD_CAT_ID":49212,"ELEMENT_SET_NO":999,"REV_AT_EPOCH":21877,"BSTAR":0.00022540611,"MEAN_MOTION_DOT":1.02e-6,"MEAN_MOTION_DDOT":0},{"OBJECT_NAME":"ONEWEB-0348","OBJECT_ID":"2021-083AD","EPOCH":"2026-03-24T06:23:47.637312","MEAN_MOTION":13.20771419,"ECCENTRICITY":0.00013682,"INCLINATION":87.9151,"RA_OF_ASC_NODE":291.3966,"ARG_OF_PERICENTER":72.7694,"MEAN_ANOMALY":287.3589,"EPHEMERIS_TYPE":0,"CLASSIFICATION_TYPE":"U","NORAD_CAT_ID":49213,"ELEMENT_SET_NO":999,"REV_AT_EPOCH":22560,"BSTAR":-0.00010912872,"MEAN_MOTION_DOT":-3.1e-7,"MEAN_MOTION_DDOT":0},{"OBJECT_NAME":"ONEWEB-0350","OBJECT_ID":"2021-083AE","EPOCH":"2026-03-24T04:23:02.440896","MEAN_MOTION":13.13468825,"ECCENTRICITY":0.00017949,"INCLINATION":87.9018,"RA_OF_ASC_NODE":337.1369,"ARG_OF_PERICENTER":68.7311,"MEAN_ANOMALY":291.4009,"EPHEMERIS_TYPE":0,"CLASSIFICATION_TYPE":"U","NORAD_CAT_ID":49214,"ELEMENT_SET_NO":999,"REV_AT_EPOCH":21977,"BSTAR":-0.00064152726,"MEAN_MOTION_DOT":-2.22e-6,"MEAN_MOTION_DDOT":0}]
